IRIDIUM 144             
1 43249U 18030A   24103.52064159  .00000214  00000+0  69375-4 0  9996
2 43249  86.3925 262.9057 0002128  90.6626 269.4814 14.34219170316095
IRIDIUM 149             
1 43250U 18030B   24103.52698311  .00000211  00000+0  68287-4 0  9999
2 43250  86.3923 262.8788 0001980  91.4840 268.6583 14.34219210316119
IRIDIUM 157             
1 43251U 18030C   24103.54600901  .00000113  00000+0  33270-4 0  9995
2 43251  86.3927 262.9064 0002165 100.1810 259.9630 14.34218702316091
IRIDIUM 140             
1 43252U 18030D   24103.49527011  .00000116  00000+0  34246-4 0  9997
2 43252  86.3924 262.9421 0002261  84.9143 275.2311 14.34218463316148
IRIDIUM 145             
1 43253U 18030E   24103.48258418  .00000140  00000+0  42838-4 0  9992
2 43253  86.3926 262.9214 0001993  84.9076 275.2348 14.34219053316075
IRIDIUM 146             
1 43254U 18030F   24103.53332465  .00000130  00000+0  39363-4 0  9992
2 43254  86.3925 262.9151 0001974  85.6370 274.5051 14.34218850316098
IRIDIUM 148             
1 43255U 18030G   24103.50161002  .00000412  00000+0  13998-3 0  9995
2 43255  86.3928 262.9594 0001755  92.0641 268.0756 14.34217163316123
IRIDIUM 142             
1 43256U 18030H   24103.46989598  .00000192  00000+0  61346-4 0  9995
2 43256  86.3924 262.8907 0001905  88.1073 272.0341 14.34219730316081
