<?xml version="1.0" encoding="UTF-8"?>
<ndm xmlns:xsi="http://www.w3.org/2001/XMLSchema-instance" xsi:noNamespaceSchemaLocation="https://sanaregistry.org/r/ndmxml_unqualified/ndmxml-2.0.0-master-2.0.xsd">
<omm id="CCSDS_OMM_VERS" version="2.0">
<header><CREATION_DATE/><ORIGINATOR/></header><body><segment><metadata><OBJECT_NAME>IRIDIUM 144</OBJECT_NAME><OBJECT_ID>2018-030A</OBJECT_ID><CENTER_NAME>EARTH</CENTER_NAME><REF_FRAME>TEME</REF_FRAME><TIME_SYSTEM>UTC</TIME_SYSTEM><MEAN_ELEMENT_THEORY>SGP4</MEAN_ELEMENT_THEORY></metadata><data><meanElements><EPOCH>2024-04-12T12:29:43.433376</EPOCH><MEAN_MOTION>14.34219170</MEAN_MOTION><ECCENTRICITY>.0002128</ECCENTRICITY><INCLINATION>86.3925</INCLINATION><RA_OF_ASC_NODE>262.9057</RA_OF_ASC_NODE><ARG_OF_PERICENTER>90.6626</ARG_OF_PERICENTER><MEAN_ANOMALY>269.4814</MEAN_ANOMALY></meanElements><tleParameters><EPHEMERIS_TYPE>0</EPHEMERIS_TYPE><CLASSIFICATION_TYPE>U</CLASSIFICATION_TYPE><NORAD_CAT_ID>43249</NORAD_CAT_ID><ELEMENT_SET_NO>999</ELEMENT_SET_NO><REV_AT_EPOCH>31609</REV_AT_EPOCH><BSTAR>.69375E-4</BSTAR><MEAN_MOTION_DOT>.214E-5</MEAN_MOTION_DOT><MEAN_MOTION_DDOT>0</MEAN_MOTION_DDOT></tleParameters></data></segment></body></omm>
<omm id="CCSDS_OMM_VERS" version="2.0">
<header><CREATION_DATE/><ORIGINATOR/></header><body><segment><metadata><OBJECT_NAME>IRIDIUM 149</OBJECT_NAME><OBJECT_ID>2018-030B</OBJECT_ID><CENTER_NAME>EARTH</CENTER_NAME><REF_FRAME>TEME</REF_FRAME><TIME_SYSTEM>UTC</TIME_SYSTEM><MEAN_ELEMENT_THEORY>SGP4</MEAN_ELEMENT_THEORY></metadata><data><meanElements><EPOCH>2024-04-12T12:38:51.340704</EPOCH><MEAN_MOTION>14.34219210</MEAN_MOTION><ECCENTRICITY>.000198</ECCENTRICITY><INCLINATION>86.3923</INCLINATION><RA_OF_ASC_NODE>262.8788</RA_OF_ASC_NODE><ARG_OF_PERICENTER>91.4840</ARG_OF_PERICENTER><MEAN_ANOMALY>268.6583</MEAN_ANOMALY></meanElements><tleParameters><EPHEMERIS_TYPE>0</EPHEMERIS_TYPE><CLASSIFICATION_TYPE>U</CLASSIFICATION_TYPE><NORAD_CAT_ID>43250</NORAD_CAT_ID><ELEMENT_SET_NO>999</ELEMENT_SET_NO><REV_AT_EPOCH>31611</REV_AT_EPOCH><BSTAR>.68287E-4</BSTAR><MEAN_MOTION_DOT>.211E-5</MEAN_MOTION_DOT><MEAN_MOTION_DDOT>0</MEAN_MOTION_DDOT></tleParameters></data></segment></body></omm>
<omm id="CCSDS_OMM_VERS" version="2.0">
<header><CREATION_DATE/><ORIGINATOR/></header><body><segment><metadata><OBJECT_NAME>IRIDIUM 157</OBJECT_NAME><OBJECT_ID>2018-030C</OBJECT_ID><CENTER_NAME>EARTH</CENTER_NAME><REF_FRAME>TEME</REF_FRAME><TIME_SYSTEM>UTC</TIME_SYSTEM><MEAN_ELEMENT_THEORY>SGP4</MEAN_ELEMENT_THEORY></metadata><data><meanElements><EPOCH>2024-04-12T13:06:15.178464</EPOCH><MEAN_MOTION>14.34218702</MEAN_MOTION><ECCENTRICITY>.0002165</ECCENTRICITY><INCLINATION>86.3927</INCLINATION><RA_OF_ASC_NODE>262.9064</RA_OF_ASC_NODE><ARG_OF_PERICENTER>100.1810</ARG_OF_PERICENTER><MEAN_ANOMALY>259.9630</MEAN_ANOMALY></meanElements><tleParameters><EPHEMERIS_TYPE>0</EPHEMERIS_TYPE><CLASSIFICATION_TYPE>U</CLASSIFICATION_TYPE><NORAD_CAT_ID>43251</NORAD_CAT_ID><ELEMENT_SET_NO>999</ELEMENT_SET_NO><REV_AT_EPOCH>31609</REV_AT_EPOCH><BSTAR>.3327E-4</BSTAR><MEAN_MOTION_DOT>.113E-5</MEAN_MOTION_DOT><MEAN_MOTION_DDOT>0</MEAN_MOTION_DDOT></tleParameters></data></segment></body></omm>
<omm id="CCSDS_OMM_VERS" version="2.0">
<header><CREATION_DATE/><ORIGINATOR/></header><body><segment><metadata><OBJECT_NAME>IRIDIUM 140</OBJECT_NAME><OBJECT_ID>2018-030D</OBJECT_ID><CENTER_NAME>EARTH</CENTER_NAME><REF_FRAME>TEME</REF_FRAME><TIME_SYSTEM>UTC</TIME_SYSTEM><MEAN_ELEMENT_THEORY>SGP4</MEAN_ELEMENT_THEORY></metadata><data><meanElements><EPOCH>2024-04-12T11:53:11.337504</EPOCH><MEAN_MOTION>14.34218463</MEAN_MOTION><ECCENTRICITY>.0002261</ECCENTRICITY><INCLINATION>86.3924</INCLINATION><RA_OF_ASC_NODE>262.9421</RA_OF_ASC_NODE><ARG_OF_PERICENTER>84.9143</ARG_OF_PERICENTER><MEAN_ANOMALY>275.2311</MEAN_ANOMALY></meanElements><tleParameters><EPHEMERIS_TYPE>0</EPHEMERIS_TYPE><CLASSIFICATION_TYPE>U</CLASSIFICATION_TYPE><NORAD_CAT_ID>43252</NORAD_CAT_ID><ELEMENT_SET_NO>999</ELEMENT_SET_NO><REV_AT_EPOCH>31614</REV_AT_EPOCH><BSTAR>.34246E-4</BSTAR><MEAN_MOTION_DOT>.116E-5</MEAN_MOTION_DOT><MEAN_MOTION_DDOT>0</MEAN_MOTION_DDOT></tleParameters></data></segment></body></omm>
<omm id="CCSDS_OMM_VERS" version="2.0">
<header><CREATION_DATE/><ORIGINATOR/></header><body><segment><metadata><OBJECT_NAME>IRIDIUM 145</OBJECT_NAME><OBJECT_ID>2018-030E</OBJECT_ID><CENTER_NAME>EARTH</CENTER_NAME><REF_FRAME>TEME</REF_FRAME><TIME_SYSTEM>UTC</TIME_SYSTEM><MEAN_ELEMENT_THEORY>SGP4</MEAN_ELEMENT_THEORY></metadata><data><meanElements><EPOCH>2024-04-12T11:34:55.273152</EPOCH><MEAN_MOTION>14.34219053</MEAN_MOTION><ECCENTRICITY>.0001993</ECCENTRICITY><INCLINATION>86.3926</INCLINATION><RA_OF_ASC_NODE>262.9214</RA_OF_ASC_NODE><ARG_OF_PERICENTER>84.9076</ARG_OF_PERICENTER><MEAN_ANOMALY>275.2348</MEAN_ANOMALY></meanElements><tleParameters><EPHEMERIS_TYPE>0</EPHEMERIS_TYPE><CLASSIFICATION_TYPE>U</CLASSIFICATION_TYPE><NORAD_CAT_ID>43253</NORAD_CAT_ID><ELEMENT_SET_NO>999</ELEMENT_SET_NO><REV_AT_EPOCH>31607</REV_AT_EPOCH><BSTAR>.42838E-4</BSTAR><MEAN_MOTION_DOT>.14E-5</MEAN_MOTION_DOT><MEAN_MOTION_DDOT>0</MEAN_MOTION_DDOT></tleParameters></data></segment></body></omm>
<omm id="CCSDS_OMM_VERS" version="2.0">
<header><CREATION_DATE/><ORIGINATOR/></header><body><segment><metadata><OBJECT_NAME>IRIDIUM 146</OBJECT_NAME><OBJECT_ID>2018-030F</OBJECT_ID><CENTER_NAME>EARTH</CENTER_NAME><REF_FRAME>TEME</REF_FRAME><TIME_SYSTEM>UTC</TIME_SYSTEM><MEAN_ELEMENT_THEORY>SGP4</MEAN_ELEMENT_THEORY></metadata><data><meanElements><EPOCH>2024-04-12T12:47:59.249760</EPOCH><MEAN_MOTION>14.34218850</MEAN_MOTION><ECCENTRICITY>.0001974</ECCENTRICITY><INCLINATION>86.3925</INCLINATION><RA_OF_ASC_NODE>262.9151</RA_OF_ASC_NODE><ARG_OF_PERICENTER>85.6370</ARG_OF_PERICENTER><MEAN_ANOMALY>274.5051</MEAN_ANOMALY></meanElements><tleParameters><EPHEMERIS_TYPE>0</EPHEMERIS_TYPE><CLASSIFICATION_TYPE>U</CLASSIFICATION_TYPE><NORAD_CAT_ID>43254</NORAD_CAT_ID><ELEMENT_SET_NO>999</ELEMENT_SET_NO><REV_AT_EPOCH>31609</REV_AT_EPOCH><BSTAR>.39363E-4</BSTAR><MEAN_MOTION_DOT>.13E-5</MEAN_MOTION_DOT><MEAN_MOTION_DDOT>0</MEAN_MOTION_DDOT></tleParameters></data></segment></body></omm>
<omm id="CCSDS_OMM_VERS" version="2.0">
<header><CREATION_DATE/><ORIGINATOR/></header><body><segment><metadata><OBJECT_NAME>IRIDIUM 148</OBJECT_NAME><OBJECT_ID>2018-030G</OBJECT_ID><CENTER_NAME>EARTH</CENTER_NAME><REF_FRAME>TEME</REF_FRAME><TIME_SYSTEM>UTC</TIME_SYSTEM><MEAN_ELEMENT_THEORY>SGP4</MEAN_ELEMENT_THEORY></metadata><data><meanElements><EPOCH>2024-04-12T12:02:19.105728</EPOCH><MEAN_MOTION>14.34217163</MEAN_MOTION><ECCENTRICITY>.0001755</ECCENTRICITY><INCLINATION>86.3928</INCLINATION><RA_OF_ASC_NODE>262.9594</RA_OF_ASC_NODE><ARG_OF_PERICENTER>92.0641</ARG_OF_PERICENTER><MEAN_ANOMALY>268.0756</MEAN_ANOMALY></meanElements><tleParameters><EPHEMERIS_TYPE>0</EPHEMERIS_TYPE><CLASSIFICATION_TYPE>U</CLASSIFICATION_TYPE><NORAD_CAT_ID>43255</NORAD_CAT_ID><ELEMENT_SET_NO>999</ELEMENT_SET_NO><REV_AT_EPOCH>31612</REV_AT_EPOCH><BSTAR>.13998E-3</BSTAR><MEAN_MOTION_DOT>.412E-5</MEAN_MOTION_DOT><MEAN_MOTION_DDOT>0</MEAN_MOTION_DDOT></tleParameters></data></segment></body></omm>
<omm id="CCSDS_OMM_VERS" version="2.0">
<header><CREATION_DATE/><ORIGINATOR/></header><body><segment><metadata><OBJECT_NAME>IRIDIUM 142</OBJECT_NAME><OBJECT_ID>2018-030H</OBJECT_ID><CENTER_NAME>EARTH</CENTER_NAME><REF_FRAME>TEME</REF_FRAME><TIME_SYSTEM>UTC</TIME_SYSTEM><MEAN_ELEMENT_THEORY>SGP4</MEAN_ELEMENT_THEORY></metadata><data><meanElements><EPOCH>2024-04-12T11:16:39.012672</EPOCH><MEAN_MOTION>14.34219730</MEAN_MOTION><ECCENTRICITY>.0001905</ECCENTRICITY><INCLINATION>86.3924</INCLINATION><RA_OF_ASC_NODE>262.8907</RA_OF_ASC_NODE><ARG_OF_PERICENTER>88.1073</ARG_OF_PERICENTER><MEAN_ANOMALY>272.0341</MEAN_ANOMALY></meanElements><tleParameters><EPHEMERIS_TYPE>0</EPHEMERIS_TYPE><CLASSIFICATION_TYPE>U</CLASSIFICATION_TYPE><NORAD_CAT_ID>43256</NORAD_CAT_ID><ELEMENT_SET_NO>999</ELEMENT_SET_NO><REV_AT_EPOCH>31608</REV_AT_EPOCH><BSTAR>.61346E-4</BSTAR><MEAN_MOTION_DOT>.192E-5</MEAN_MOTION_DOT><MEAN_MOTION_DDOT>0</MEAN_MOTION_DDOT></tleParameters></data></segment></body></omm>

</ndm>
